{"fetched_at":"2026-03-29T16:36:15Z","count":15609,"tles":[{"name":"STARLINK-34034","line1":"1 63947U 25098X   26087.83335648  .00041874  00000+0  34973-2 0  9997","line2":"2 63947  70.0004 226.2819 0003148 274.5932 227.1607 14.98318426  5804","category":"Starlink"}]}