{
  "norad_id": 63947,
  "name": "STARLINK-34034",
  "history": [
    {
      "epoch": "2026-03-28T20:00:01.999872",
      "apogee_km": 574.2796843067099,
      "perigee_km": 569.9036813234352,
      "latitude_deg": 10.449726420353183,
      "longitude_deg": -65.29777792003006,
      "semi_major_axis_km": 6950.228682815072,
      "eccentricity": 0.00031481,
      "inclination_deg": 70.0004,
      "raan_deg": 226.2819,
      "arg_perigee_deg": 274.5932,
      "mean_anomaly_deg": 227.1607,
      "mean_motion_rev_day": 14.98318426
    }
  ]
}